start=new Date('2023-03-27T00:00:00.000Z').valueOf();
sats=[{"PERIAPSIS":"546.403","FILE":"3871964","INCLINATION":"53.0529","NORAD_CAT_ID":"46154","OBJECT_NAME":"STARLINK-1642","TLE_LINE1":"1 46154U 20057AP  23085.78998847  .00030195  00000-0  20403-2 0  9991","ARG_OF_PERICENTER":"82.6468","OBJECT_TYPE":"PAYLOAD","CLASSIFICATION_TYPE":"U","TIME_SYSTEM":"UTC","RA_OF_ASC_NODE":"109.9854","ECCENTRICITY":"0.00014080","BSTAR":"0.00204030000000","APOAPSIS":"548.354","SEMIMAJOR_AXIS":"6925.513","REF_FRAME":"TEME","LAUNCH_DATE":"2020-08-18","COUNTRY_CODE":"US","MEAN_MOTION_DDOT":"0.0000000000000","MEAN_MOTION":"15.06346203","TLE_LINE2":"2 46154  53.0529 109.9854 0001408  82.6468 277.4681 15.06346203143596","ELEMENT_SET_NO":"999","RCS_SIZE":"LARGE","DECAY_DATE":null,"EPOCH":"2023-03-26T18:57:35.003808","SITE":"AFETR","MEAN_ANOMALY":"277.4681","REV_AT_EPOCH":"14359","GP_ID":"228914795","CENTER_NAME":"EARTH","EPHEMERIS_TYPE":"0","MEAN_ELEMENT_THEORY":"SGP4","PERIOD":"95.596","OBJECT_ID":"2020-057AP","MEAN_MOTION_DOT":"0.00030195"},{"OBJECT_ID":"2020-057AQ","MEAN_MOTION_DOT":"0.00020156","CENTER_NAME":"EARTH","EPHEMERIS_TYPE":"0","PERIOD":"95.593","MEAN_ELEMENT_THEORY":"SGP4","REV_AT_EPOCH":"14523","GP_ID":"228915045","RCS_SIZE":"LARGE","SITE":"AFETR","MEAN_ANOMALY":"253.4691","DECAY_DATE":null,"EPOCH":"2023-03-26T16:22:18.885792","TLE_LINE2":"2 46155  53.0537  80.4685 0001598 106.6473 253.4691 15.06382107145235","MEAN_MOTION":"15.06382107","ELEMENT_SET_NO":"999","LAUNCH_DATE":"2020-08-18","MEAN_MOTION_DDOT":"0.0000000000000","COUNTRY_CODE":"US","BSTAR":"0.00136880000000","RA_OF_ASC_NODE":"80.4685","ECCENTRICITY":"0.00015980","REF_FRAME":"TEME","SEMIMAJOR_AXIS":"6925.403","APOAPSIS":"548.375","ARG_OF_PERICENTER":"106.6473","OBJECT_TYPE":"PAYLOAD","TLE_LINE1":"1 46155U 20057AQ  23085.68216303  .00020156  00000-0  13688-2 0  9994","OBJECT_NAME":"STARLINK-1667","TIME_SYSTEM":"UTC","CLASSIFICATION_TYPE":"U","INCLINATION":"53.0537","FILE":"3871964","PERIAPSIS":"546.162","NORAD_CAT_ID":"46155"},{"INCLINATION":"53.0530","FILE":"3871964","PERIAPSIS":"546.238","NORAD_CAT_ID":"46156","ARG_OF_PERICENTER":"100.3638","OBJECT_TYPE":"PAYLOAD","TLE_LINE1":"1 46156U 20057AR  23085.73929076  .00007964  00000-0  55356-3 0  9990","OBJECT_NAME":"STARLINK-1545","CLASSIFICATION_TYPE":"U","TIME_SYSTEM":"UTC","BSTAR":"0.00055356000000","ECCENTRICITY":"0.00015870","RA_OF_ASC_NODE":"100.2150","SEMIMAJOR_AXIS":"6925.472","REF_FRAME":"TEME","APOAPSIS":"548.436","MEAN_MOTION":"15.06359841","TLE_LINE2":"2 46156  53.0530 100.2150 0001587 100.3638 259.7530 15.06359841144979","ELEMENT_SET_NO":"999","MEAN_MOTION_DDOT":"0.0000000000000","COUNTRY_CODE":"US","LAUNCH_DATE":"2020-08-18","RCS_SIZE":"LARGE","MEAN_ANOMALY":"259.7530","SITE":"AFETR","EPOCH":"2023-03-26T17:44:34.721664","DECAY_DATE":null,"REV_AT_EPOCH":"14497","GP_ID":"228915295","EPHEMERIS_TYPE":"0","CENTER_NAME":"EARTH","PERIOD":"95.595","MEAN_ELEMENT_THEORY":"SGP4","OBJECT_ID":"2020-057AR","MEAN_MOTION_DOT":"0.00007964"},{"RCS_SIZE":"LARGE","DECAY_DATE":null,"EPOCH":"2023-03-26T11:03:48.447360","SITE":"AFETR","MEAN_ANOMALY":"283.6463","REV_AT_EPOCH":"14396","GP_ID":"228916046","CENTER_NAME":"EARTH","EPHEMERIS_TYPE":"0","MEAN_ELEMENT_THEORY":"SGP4","PERIOD":"95.596","OBJECT_ID":"2020-057AS","MEAN_MOTION_DOT":"0.00021524","PERIAPSIS":"546.359","FILE":"3871964","INCLINATION":"53.0530","NORAD_CAT_ID":"46157","TLE_LINE1":"1 46157U 20057AS  23085.46097740  .00021524  00000-0  14616-2 0  9996","OBJECT_NAME":"STARLINK-1587","ARG_OF_PERICENTER":"76.4690","OBJECT_TYPE":"PAYLOAD","TIME_SYSTEM":"UTC","CLASSIFICATION_TYPE":"U","RA_OF_ASC_NODE":"81.4612","ECCENTRICITY":"0.00014730","BSTAR":"0.00146160000000","APOAPSIS":"548.399","REF_FRAME":"TEME","SEMIMAJOR_AXIS":"6925.514","LAUNCH_DATE":"2020-08-18","COUNTRY_CODE":"US","MEAN_MOTION_DDOT":"0.0000000000000","MEAN_MOTION":"15.06346115","TLE_LINE2":"2 46157  53.0530  81.4612 0001473  76.4690 283.6463 15.06346115143967","ELEMENT_SET_NO":"999"},{"LAUNCH_DATE":"2020-08-18","COUNTRY_CODE":"US","MEAN_MOTION_DDOT":"0.0000000000000","ELEMENT_SET_NO":"999","TLE_LINE2":"2 46158  53.0539  80.2890 0001442  76.7117 283.4033 15.06377432145267","MEAN_MOTION":"15.06377432","RA_OF_ASC_NODE":"80.2890","ECCENTRICITY":"0.00014420","BSTAR":"0.00158640000000","APOAPSIS":"548.281","SEMIMAJOR_AXIS":"6925.418","REF_FRAME":"TEME","TLE_LINE1":"1 46158U 20057AT  23085.72271196  .00023412  00000-0  15864-2 0  9999","OBJECT_NAME":"STARLINK-1589","ARG_OF_PERICENTER":"76.7117","OBJECT_TYPE":"PAYLOAD","CLASSIFICATION_TYPE":"U","TIME_SYSTEM":"UTC","FILE":"3871964","PERIAPSIS":"546.284","INCLINATION":"53.0539","NORAD_CAT_ID":"46158","OBJECT_ID":"2020-057AT","MEAN_MOTION_DOT":"0.00023412","CENTER_NAME":"EARTH","EPHEMERIS_TYPE":"0","MEAN_ELEMENT_THEORY":"SGP4","PERIOD":"95.594","REV_AT_EPOCH":"14526","GP_ID":"228914296","RCS_SIZE":"LARGE","DECAY_DATE":null,"EPOCH":"2023-03-26T17:20:42.313344","SITE":"AFETR","MEAN_ANOMALY":"283.4033"},{"ECCENTRICITY":"0.00016030","RA_OF_ASC_NODE":"119.8068","BSTAR":"0.00143830000000","APOAPSIS":"548.477","SEMIMAJOR_AXIS":"6925.501","REF_FRAME":"TEME","MEAN_MOTION_DDOT":"0.0000000000000","COUNTRY_CODE":"US","LAUNCH_DATE":"2020-08-18","ELEMENT_SET_NO":"999","TLE_LINE2":"2 46159  53.0522 119.8068 0001603  76.5472 283.5696 15.06350126144713","MEAN_MOTION":"15.06350126","FILE":"3871964","PERIAPSIS":"546.256","INCLINATION":"53.0522","NORAD_CAT_ID":"46159","OBJECT_NAME":"STARLINK-1595","TLE_LINE1":"1 46159U 20057AU  23085.82959186  .00021178  00000-0  14383-2 0  9995","OBJECT_TYPE":"PAYLOAD","ARG_OF_PERICENTER":"76.5472","CLASSIFICATION_TYPE":"U","TIME_SYSTEM":"UTC","EPHEMERIS_TYPE":"0","CENTER_NAME":"EARTH","MEAN_ELEMENT_THEORY":"SGP4","PERIOD":"95.595","OBJECT_ID":"2020-057AU","MEAN_MOTION_DOT":"0.00021178","RCS_SIZE":"LARGE","EPOCH":"2023-03-26T19:54:36.736704","DECAY_DATE":null,"SITE":"AFETR","MEAN_ANOMALY":"283.5696","REV_AT_EPOCH":"14471","GP_ID":"228914545"},{"TLE_LINE2":"2 46160  53.0545 100.1479 0001306 110.2201 249.8929 15.06363289144971","ELEMENT_SET_NO":"999","MEAN_MOTION":"15.06363289","COUNTRY_CODE":"US","MEAN_MOTION_DDOT":"0.0000000000000","LAUNCH_DATE":"2020-08-18","BSTAR":"-0.00061708000000","ECCENTRICITY":"0.00013060","RA_OF_ASC_NODE":"100.1479","REF_FRAME":"TEME","SEMIMAJOR_AXIS":"6925.461","APOAPSIS":"548.231","OBJECT_TYPE":"PAYLOAD","ARG_OF_PERICENTER":"110.2201","TLE_LINE1":"1 46160U 20057AV  23085.75406440 -.00009452  00000-0 -61708-3 0  9996","OBJECT_NAME":"STARLINK-1598","TIME_SYSTEM":"UTC","CLASSIFICATION_TYPE":"U","INCLINATION":"53.0545","FILE":"3871964","PERIAPSIS":"546.422","NORAD_CAT_ID":"46160","OBJECT_ID":"2020-057AV","MEAN_MOTION_DOT":"-0.00009452","EPHEMERIS_TYPE":"0","CENTER_NAME":"EARTH","PERIOD":"95.594","MEAN_ELEMENT_THEORY":"SGP4","REV_AT_EPOCH":"14497","GP_ID":"228915796","RCS_SIZE":"LARGE","SITE":"AFETR","MEAN_ANOMALY":"249.8929","EPOCH":"2023-03-26T18:05:51.164160","DECAY_DATE":null},{"LAUNCH_DATE":"2020-08-18","COUNTRY_CODE":"US","MEAN_MOTION_DDOT":"0.0000000000000","ELEMENT_SET_NO":"999","TLE_LINE2":"2 46161  53.0538 100.2452 0001622 100.5576 259.5596 15.06364106144971","MEAN_MOTION":"15.06364106","APOAPSIS":"548.447","REF_FRAME":"TEME","SEMIMAJOR_AXIS":"6925.459","RA_OF_ASC_NODE":"100.2452","ECCENTRICITY":"0.00016220","BSTAR":"0.00125680000000","CLASSIFICATION_TYPE":"U","TIME_SYSTEM":"UTC","OBJECT_NAME":"STARLINK-1600","TLE_LINE1":"1 46161U 20057AW  23085.73191791  .00018470  00000-0  12568-2 0  9992","ARG_OF_PERICENTER":"100.5576","OBJECT_TYPE":"PAYLOAD","NORAD_CAT_ID":"46161","PERIAPSIS":"546.200","FILE":"3871964","INCLINATION":"53.0538","MEAN_MOTION_DOT":"0.00018470","OBJECT_ID":"2020-057AW","MEAN_ELEMENT_THEORY":"SGP4","PERIOD":"95.594","CENTER_NAME":"EARTH","EPHEMERIS_TYPE":"0","GP_ID":"228915546","REV_AT_EPOCH":"14497","DECAY_DATE":null,"EPOCH":"2023-03-26T17:33:57.707424","SITE":"AFETR","MEAN_ANOMALY":"259.5596","RCS_SIZE":"LARGE"},{"TLE_LINE1":"1 46162U 20057AX  23085.86831180  .00010690  00000-0  73604-3 0  9995","OBJECT_NAME":"STARLINK-1603","ARG_OF_PERICENTER":"95.7459","OBJECT_TYPE":"PAYLOAD","CLASSIFICATION_TYPE":"U","TIME_SYSTEM":"UTC","FILE":"3871964","PERIAPSIS":"546.433","INCLINATION":"53.0536","NORAD_CAT_ID":"46162","LAUNCH_DATE":"2020-08-18","MEAN_MOTION_DDOT":"0.0000000000000","COUNTRY_CODE":"US","MEAN_MOTION":"15.06369675","TLE_LINE2":"2 46162  53.0536  99.6307 0001262  95.7459 264.3674 15.06369675145007","ELEMENT_SET_NO":"999","RA_OF_ASC_NODE":"99.6307","ECCENTRICITY":"0.00012620","BSTAR":"0.00073604000000","APOAPSIS":"548.180","REF_FRAME":"TEME","SEMIMAJOR_AXIS":"6925.442","REV_AT_EPOCH":"14500","GP_ID":"228914796","RCS_SIZE":"LARGE","DECAY_DATE":null,"EPOCH":"2023-03-26T20:50:22.139520","SITE":"AFETR","MEAN_ANOMALY":"264.3674","OBJECT_ID":"2020-057AX","MEAN_MOTION_DOT":"0.00010690","CENTER_NAME":"EARTH","EPHEMERIS_TYPE":"0","MEAN_ELEMENT_THEORY":"SGP4","PERIOD":"95.594"},{"RA_OF_ASC_NODE":"82.3206","ECCENTRICITY":"0.00012990","BSTAR":"0.00088393000000","APOAPSIS":"548.453","SEMIMAJOR_AXIS":"6925.688","REF_FRAME":"TEME","LAUNCH_DATE":"2020-08-18","MEAN_MOTION_DDOT":"0.0000000000000","COUNTRY_CODE":"US","TLE_LINE2":"2 46163  53.0544  82.3206 0001299 111.0768 249.0360 15.06289135143933","ELEMENT_SET_NO":"999","MEAN_MOTION":"15.06289135","FILE":"3871964","PERIAPSIS":"546.654","INCLINATION":"53.0544","NORAD_CAT_ID":"46163","TLE_LINE1":"1 46163U 20057AY  23085.26928493  .00012870  00000-0  88393-3 0  9997","OBJECT_NAME":"STARLINK-1610","ARG_OF_PERICENTER":"111.0768","OBJECT_TYPE":"PAYLOAD","TIME_SYSTEM":"UTC","CLASSIFICATION_TYPE":"U","CENTER_NAME":"EARTH","EPHEMERIS_TYPE":"0","MEAN_ELEMENT_THEORY":"SGP4","PERIOD":"95.599","OBJECT_ID":"2020-057AY","MEAN_MOTION_DOT":"0.00012870","RCS_SIZE":"LARGE","DECAY_DATE":null,"EPOCH":"2023-03-26T06:27:46.217952","SITE":"AFETR","MEAN_ANOMALY":"249.0360","REV_AT_EPOCH":"14393","GP_ID":"228915046"}];
